JY1SAT (JO-97)          
1 43803U 18099AX  26068.68634132  .00017774  00000+0  60804-3 0  9996
2 43803  97.4249 131.3625 0004723 256.6795 103.3919 15.30302628398390
STARLINK-35879          
1 66960U 25288B   26068.27847035  .00033356  00000+0  12165-2 0  9996
2 66960  43.0038  25.8540 0001724 255.1565 104.9096 15.27572678 15223
